<?xml version="1.0" encoding="UTF-8"?>
<ndm xmlns:xsi="http://www.w3.org/2001/XMLSchema-instance" xsi:noNamespaceSchemaLocation="https://sanaregistry.org/r/ndmxml_unqualified/ndmxml-2.0.0-master-2.0.xsd">
<omm id="CCSDS_OMM_VERS" version="2.0">
<header><CREATION_DATE/><ORIGINATOR/></header><body><segment><metadata><OBJECT_NAME>IRIDIUM 36</OBJECT_NAME><OBJECT_ID>1997-056C</OBJECT_ID><CENTER_NAME>EARTH</CENTER_NAME><REF_FRAME>TEME</REF_FRAME><TIME_SYSTEM>UTC</TIME_SYSTEM><MEAN_ELEMENT_THEORY>SGP4</MEAN_ELEMENT_THEORY></metadata><data><meanElements><EPOCH>2024-11-07T08:38:46.363776</EPOCH><MEAN_MOTION>14.37202242</MEAN_MOTION><ECCENTRICITY>.0002484</ECCENTRICITY><INCLINATION>86.3939</INCLINATION><RA_OF_ASC_NODE>266.1367</RA_OF_ASC_NODE><ARG_OF_PERICENTER>82.2382</ARG_OF_PERICENTER><MEAN_ANOMALY>277.9097</MEAN_ANOMALY></meanElements><tleParameters><EPHEMERIS_TYPE>0</EPHEMERIS_TYPE><CLASSIFICATION_TYPE>U</CLASSIFICATION_TYPE><NORAD_CAT_ID>24967</NORAD_CAT_ID><ELEMENT_SET_NO>999</ELEMENT_SET_NO><REV_AT_EPOCH>42035</REV_AT_EPOCH><BSTAR>.61154E-3</BSTAR><MEAN_MOTION_DOT>.1838E-4</MEAN_MOTION_DOT><MEAN_MOTION_DDOT>0</MEAN_MOTION_DDOT></tleParameters></data></segment></body></omm>
<omm id="CCSDS_OMM_VERS" version="2.0">
<header><CREATION_DATE/><ORIGINATOR/></header><body><segment><metadata><OBJECT_NAME>IRIDIUM 39</OBJECT_NAME><OBJECT_ID>1997-069D</OBJECT_ID><CENTER_NAME>EARTH</CENTER_NAME><REF_FRAME>TEME</REF_FRAME><TIME_SYSTEM>UTC</TIME_SYSTEM><MEAN_ELEMENT_THEORY>SGP4</MEAN_ELEMENT_THEORY></metadata><data><meanElements><EPOCH>2024-11-07T12:21:31.697280</EPOCH><MEAN_MOTION>14.48580729</MEAN_MOTION><ECCENTRICITY>.0016903</ECCENTRICITY><INCLINATION>86.3876</INCLINATION><RA_OF_ASC_NODE>306.1857</RA_OF_ASC_NODE><ARG_OF_PERICENTER>333.9824</ARG_OF_PERICENTER><MEAN_ANOMALY>26.0528</MEAN_ANOMALY></meanElements><tleParameters><EPHEMERIS_TYPE>0</EPHEMERIS_TYPE><CLASSIFICATION_TYPE>U</CLASSIFICATION_TYPE><NORAD_CAT_ID>25042</NORAD_CAT_ID><ELEMENT_SET_NO>999</ELEMENT_SET_NO><REV_AT_EPOCH>41686</REV_AT_EPOCH><BSTAR>.81735E-3</BSTAR><MEAN_MOTION_DOT>.3096E-4</MEAN_MOTION_DOT><MEAN_MOTION_DDOT>0</MEAN_MOTION_DDOT></tleParameters></data></segment></body></omm>
<omm id="CCSDS_OMM_VERS" version="2.0">
<header><CREATION_DATE/><ORIGINATOR/></header><body><segment><metadata><OBJECT_NAME>IRIDIUM 38</OBJECT_NAME><OBJECT_ID>1997-069E</OBJECT_ID><CENTER_NAME>EARTH</CENTER_NAME><REF_FRAME>TEME</REF_FRAME><TIME_SYSTEM>UTC</TIME_SYSTEM><MEAN_ELEMENT_THEORY>SGP4</MEAN_ELEMENT_THEORY></metadata><data><meanElements><EPOCH>2024-11-07T11:02:38.962752</EPOCH><MEAN_MOTION>14.37683980</MEAN_MOTION><ECCENTRICITY>.0004099</ECCENTRICITY><INCLINATION>86.3940</INCLINATION><RA_OF_ASC_NODE>326.4698</RA_OF_ASC_NODE><ARG_OF_PERICENTER>97.5224</ARG_OF_PERICENTER><MEAN_ANOMALY>262.6439</MEAN_ANOMALY></meanElements><tleParameters><EPHEMERIS_TYPE>0</EPHEMERIS_TYPE><CLASSIFICATION_TYPE>U</CLASSIFICATION_TYPE><NORAD_CAT_ID>25043</NORAD_CAT_ID><ELEMENT_SET_NO>999</ELEMENT_SET_NO><REV_AT_EPOCH>41409</REV_AT_EPOCH><BSTAR>.61027E-3</BSTAR><MEAN_MOTION_DOT>.1852E-4</MEAN_MOTION_DOT><MEAN_MOTION_DDOT>0</MEAN_MOTION_DDOT></tleParameters></data></segment></body></omm>
<omm id="CCSDS_OMM_VERS" version="2.0">
<header><CREATION_DATE/><ORIGINATOR/></header><body><segment><metadata><OBJECT_NAME>IRIDIUM 42</OBJECT_NAME><OBJECT_ID>1997-077A</OBJECT_ID><CENTER_NAME>EARTH</CENTER_NAME><REF_FRAME>TEME</REF_FRAME><TIME_SYSTEM>UTC</TIME_SYSTEM><MEAN_ELEMENT_THEORY>SGP4</MEAN_ELEMENT_THEORY></metadata><data><meanElements><EPOCH>2024-11-07T08:03:26.410176</EPOCH><MEAN_MOTION>14.35952758</MEAN_MOTION><ECCENTRICITY>.0002822</ECCENTRICITY><INCLINATION>86.3955</INCLINATION><RA_OF_ASC_NODE>332.4182</RA_OF_ASC_NODE><ARG_OF_PERICENTER>98.5184</ARG_OF_PERICENTER><MEAN_ANOMALY>261.6333</MEAN_ANOMALY></meanElements><tleParameters><EPHEMERIS_TYPE>0</EPHEMERIS_TYPE><CLASSIFICATION_TYPE>U</CLASSIFICATION_TYPE><NORAD_CAT_ID>25077</NORAD_CAT_ID><ELEMENT_SET_NO>999</ELEMENT_SET_NO><REV_AT_EPOCH>40935</REV_AT_EPOCH><BSTAR>.56998E-3</BSTAR><MEAN_MOTION_DOT>.1673E-4</MEAN_MOTION_DOT><MEAN_MOTION_DDOT>0</MEAN_MOTION_DDOT></tleParameters></data></segment></body></omm>
<omm id="CCSDS_OMM_VERS" version="2.0">
<header><CREATION_DATE/><ORIGINATOR/></header><body><segment><metadata><OBJECT_NAME>IRIDIUM 44</OBJECT_NAME><OBJECT_ID>1997-077B</OBJECT_ID><CENTER_NAME>EARTH</CENTER_NAME><REF_FRAME>TEME</REF_FRAME><TIME_SYSTEM>UTC</TIME_SYSTEM><MEAN_ELEMENT_THEORY>SGP4</MEAN_ELEMENT_THEORY></metadata><data><meanElements><EPOCH>2024-11-07T11:16:58.414656</EPOCH><MEAN_MOTION>14.39811031</MEAN_MOTION><ECCENTRICITY>.0003743</ECCENTRICITY><INCLINATION>86.3925</INCLINATION><RA_OF_ASC_NODE>314.8723</RA_OF_ASC_NODE><ARG_OF_PERICENTER>67.0776</ARG_OF_PERICENTER><MEAN_ANOMALY>293.0818</MEAN_ANOMALY></meanElements><tleParameters><EPHEMERIS_TYPE>0</EPHEMERIS_TYPE><CLASSIFICATION_TYPE>U</CLASSIFICATION_TYPE><NORAD_CAT_ID>25078</NORAD_CAT_ID><ELEMENT_SET_NO>999</ELEMENT_SET_NO><REV_AT_EPOCH>41179</REV_AT_EPOCH><BSTAR>.65547E-3</BSTAR><MEAN_MOTION_DOT>.2075E-4</MEAN_MOTION_DOT><MEAN_MOTION_DDOT>0</MEAN_MOTION_DDOT></tleParameters></data></segment></body></omm>
<omm id="CCSDS_OMM_VERS" version="2.0">
<header><CREATION_DATE/><ORIGINATOR/></header><body><segment><metadata><OBJECT_NAME>IRIDIUM 45</OBJECT_NAME><OBJECT_ID>1997-082A</OBJECT_ID><CENTER_NAME>EARTH</CENTER_NAME><REF_FRAME>TEME</REF_FRAME><TIME_SYSTEM>UTC</TIME_SYSTEM><MEAN_ELEMENT_THEORY>SGP4</MEAN_ELEMENT_THEORY></metadata><data><meanElements><EPOCH>2024-11-07T14:28:20.476128</EPOCH><MEAN_MOTION>15.11051534</MEAN_MOTION><ECCENTRICITY>.0144194</ECCENTRICITY><INCLINATION>86.3638</INCLINATION><RA_OF_ASC_NODE>154.5394</RA_OF_ASC_NODE><ARG_OF_PERICENTER>75.1396</ARG_OF_PERICENTER><MEAN_ANOMALY>286.5762</MEAN_ANOMALY></meanElements><tleParameters><EPHEMERIS_TYPE>0</EPHEMERIS_TYPE><CLASSIFICATION_TYPE>U</CLASSIFICATION_TYPE><NORAD_CAT_ID>25104</NORAD_CAT_ID><ELEMENT_SET_NO>999</ELEMENT_SET_NO><REV_AT_EPOCH>41845</REV_AT_EPOCH><BSTAR>.14102E-2</BSTAR><MEAN_MOTION_DOT>.30426E-3</MEAN_MOTION_DOT><MEAN_MOTION_DDOT>0</MEAN_MOTION_DDOT></tleParameters></data></segment></body></omm>
<omm id="CCSDS_OMM_VERS" version="2.0">
<header><CREATION_DATE/><ORIGINATOR/></header><body><segment><metadata><OBJECT_NAME>IRIDIUM 24</OBJECT_NAME><OBJECT_ID>1997-082B</OBJECT_ID><CENTER_NAME>EARTH</CENTER_NAME><REF_FRAME>TEME</REF_FRAME><TIME_SYSTEM>UTC</TIME_SYSTEM><MEAN_ELEMENT_THEORY>SGP4</MEAN_ELEMENT_THEORY></metadata><data><meanElements><EPOCH>2024-11-07T09:05:46.034592</EPOCH><MEAN_MOTION>14.41643963</MEAN_MOTION><ECCENTRICITY>.0013509</ECCENTRICITY><INCLINATION>86.3954</INCLINATION><RA_OF_ASC_NODE>174.3009</RA_OF_ASC_NODE><ARG_OF_PERICENTER>89.7752</ARG_OF_PERICENTER><MEAN_ANOMALY>270.4995</MEAN_ANOMALY></meanElements><tleParameters><EPHEMERIS_TYPE>0</EPHEMERIS_TYPE><CLASSIFICATION_TYPE>U</CLASSIFICATION_TYPE><NORAD_CAT_ID>25105</NORAD_CAT_ID><ELEMENT_SET_NO>999</ELEMENT_SET_NO><REV_AT_EPOCH>41125</REV_AT_EPOCH><BSTAR>.56881E-3</BSTAR><MEAN_MOTION_DOT>.1873E-4</MEAN_MOTION_DOT><MEAN_MOTION_DDOT>0</MEAN_MOTION_DDOT></tleParameters></data></segment></body></omm>
<omm id="CCSDS_OMM_VERS" version="2.0">
<header><CREATION_DATE/><ORIGINATOR/></header><body><segment><metadata><OBJECT_NAME>IRIDIUM 51</OBJECT_NAME><OBJECT_ID>1998-018A</OBJECT_ID><CENTER_NAME>EARTH</CENTER_NAME><REF_FRAME>TEME</REF_FRAME><TIME_SYSTEM>UTC</TIME_SYSTEM><MEAN_ELEMENT_THEORY>SGP4</MEAN_ELEMENT_THEORY></metadata><data><meanElements><EPOCH>2024-11-07T07:43:55.345440</EPOCH><MEAN_MOTION>15.21175974</MEAN_MOTION><ECCENTRICITY>.0123694</ECCENTRICITY><INCLINATION>86.3934</INCLINATION><RA_OF_ASC_NODE>164.0351</RA_OF_ASC_NODE><ARG_OF_PERICENTER>12.9027</ARG_OF_PERICENTER><MEAN_ANOMALY>347.5331</MEAN_ANOMALY></meanElements><tleParameters><EPHEMERIS_TYPE>0</EPHEMERIS_TYPE><CLASSIFICATION_TYPE>U</CLASSIFICATION_TYPE><NORAD_CAT_ID>25262</NORAD_CAT_ID><ELEMENT_SET_NO>999</ELEMENT_SET_NO><REV_AT_EPOCH>41309</REV_AT_EPOCH><BSTAR>.16269E-2</BSTAR><MEAN_MOTION_DOT>.44916E-3</MEAN_MOTION_DOT><MEAN_MOTION_DDOT>0</MEAN_MOTION_DDOT></tleParameters></data></segment></body></omm>

</ndm>
