IRIDIUM 36              
1 24967U 97056C   24312.36025884  .00001838  00000+0  61154-3 0  9992
2 24967  86.3939 266.1367 0002484  82.2382 277.9097 14.37202242420354
IRIDIUM 39              
1 25042U 97069D   24312.51495020  .00003096  00000+0  81735-3 0  9996
2 25042  86.3876 306.1857 0016903 333.9824  26.0528 14.48580729416860
IRIDIUM 38              
1 25043U 97069E   24312.46017318  .00001852  00000+0  61027-3 0  9991
2 25043  86.3940 326.4698 0004099  97.5224 262.6439 14.37683980414094
IRIDIUM 42              
1 25077U 97077A   24312.33572234  .00001673  00000+0  56998-3 0  9998
2 25077  86.3955 332.4182 0002822  98.5184 261.6333 14.35952758409355
IRIDIUM 44              
1 25078U 97077B   24312.47012054  .00002075  00000+0  65547-3 0  9990
2 25078  86.3925 314.8723 0003743  67.0776 293.0818 14.39811031411799
IRIDIUM 45              
1 25104U 97082A   24312.60301477  .00030426  00000+0  14102-2 0  9992
2 25104  86.3638 154.5394 0144194  75.1396 286.5762 15.11051534418457
IRIDIUM 24              
1 25105U 97082B   24312.37900503  .00001873  00000+0  56881-3 0  9997
2 25105  86.3954 174.3009 0013509  89.7752 270.4995 14.41643963411250
IRIDIUM 51              
1 25262U 98018A   24312.32216835  .00044916  00000+0  16269-2 0  9994
2 25262  86.3934 164.0351 0123694  12.9027 347.5331 15.21175974413093
